{
  "type": "FeatureCollection",
  "features": [
    {
      "type": "Feature",
      "properties": {
        "norad_id": 35616,
        "name": "IRIDIUM 33 DEB",
        "group": "iridium-33-debris",
        "lat": 8.336688085206367,
        "lon": -18.37658483023316,
        "alt_km": 628.9616920825383,
        "timestamp": "2025-12-22T23:36:21.100945+00:00",
        "meta_object_name": "IRIDIUM 33 DEB",
        "meta_object_id": "1997-051QN",
        "meta_epoch": "2025-12-21T16:46:45.287328",
        "meta_mean_motion": 14.82015021,
        "meta_eccentricity": 0.00114093,
        "meta_inclination": 86.3545,
        "meta_ra_of_asc_node": 341.6744,
        "meta_arg_of_pericenter": 134.0095,
        "meta_mean_anomaly": 226.2069,
        "meta_ephemeris_type": 0,
        "meta_classification_type": "U",
        "meta_norad_cat_id": 35616,
        "meta_element_set_no": 999,
        "meta_rev_at_epoch": 87707,
        "meta_bstar": 0.0013754653,
        "meta_mean_motion_dot": 0.00010957,
        "meta_mean_motion_ddot": 0,
        "tle_line1": "1 35616U 97051QN  25355.69913527  .00010957  00000+0  13755-2 0  9999",
        "tle_line2": "2 35616  86.3545 341.6744 0011409 134.0095 226.2069 14.82015021877070"
      },
      "geometry": {
        "type": "Point",
        "coordinates": [
          -18.37658483023316,
          8.336688085206367
        ]
      }
    },
    {
      "type": "Feature",
      "properties": {
        "norad_id": 35618,
        "name": "IRIDIUM 33 DEB",
        "group": "iridium-33-debris",
        "lat": 55.80416148142928,
        "lon": 163.6224874065136,
        "alt_km": 727.4670828632106,
        "timestamp": "2025-12-22T23:36:21.100962+00:00",
        "meta_object_name": "IRIDIUM 33 DEB",
        "meta_object_id": "1997-051QQ",
        "meta_epoch": "2025-12-21T17:16:24.492288",
        "meta_mean_motion": 14.52331103,
        "meta_eccentricity": 0.00284149,
        "meta_inclination": 86.341,
        "meta_ra_of_asc_node": 349.5786,
        "meta_arg_of_pericenter": 351.4344,
        "meta_mean_anomaly": 8.6373,
        "meta_ephemeris_type": 0,
        "meta_classification_type": "U",
        "meta_norad_cat_id": 35618,
        "meta_element_set_no": 999,
        "meta_rev_at_epoch": 65524,
        "meta_bstar": 0.00039049847,
        "meta_mean_motion_dot": 1.617e-05,
        "meta_mean_motion_ddot": 0,
        "tle_line1": "1 35618U 97051QQ  25355.71972792  .00001617  00000+0  39050-3 0  9993",
        "tle_line2": "2 35618  86.3410 349.5786 0028414 351.4344   8.6373 14.52331103655244"
      },
      "geometry": {
        "type": "Point",
        "coordinates": [
          163.6224874065136,
          55.80416148142928
        ]
      }
    },
    {
      "type": "Feature",
      "properties": {
        "norad_id": 35620,
        "name": "IRIDIUM 33 DEB",
        "group": "iridium-33-debris",
        "lat": -51.17108159295253,
        "lon": -151.36375114435663,
        "alt_km": 758.5676325462027,
        "timestamp": "2025-12-22T23:36:21.100979+00:00",
        "meta_object_name": "IRIDIUM 33 DEB",
        "meta_object_id": "1997-051QS",
        "meta_epoch": "2025-12-18T07:58:30.597312",
        "meta_mean_motion": 14.38231155,
        "meta_eccentricity": 0.01396071,
        "meta_inclination": 86.3909,
        "meta_ra_of_asc_node": 215.0948,
        "meta_arg_of_pericenter": 240.37,
        "meta_mean_anomaly": 118.3533,
        "meta_ephemeris_type": 0,
        "meta_classification_type": "U",
        "meta_norad_cat_id": 35620,
        "meta_element_set_no": 999,
        "meta_rev_at_epoch": 60046,
        "meta_bstar": 0.0042608437,
        "meta_mean_motion_dot": 0.00014532,
        "meta_mean_motion_ddot": 0,
        "tle_line1": "1 35620U 97051QS  25352.33229858  .00014532  00000+0  42608-2 0  9991",
        "tle_line2": "2 35620  86.3909 215.0948 0139607 240.3700 118.3533 14.38231155600467"
      },
      "geometry": {
        "type": "Point",
        "coordinates": [
          -151.36375114435663,
          -51.17108159295253
        ]
      }
    },
    {
      "type": "Feature",
      "properties": {
        "norad_id": 35622,
        "name": "IRIDIUM 33 DEB",
        "group": "iridium-33-debris",
        "lat": -19.03630476827265,
        "lon": -102.76107356829623,
        "alt_km": 552.8022942093612,
        "timestamp": "2025-12-22T23:36:21.100996+00:00",
        "meta_object_name": "IRIDIUM 33 DEB",
        "meta_object_id": "1997-051QU",
        "meta_epoch": "2025-12-21T17:30:45.499392",
        "meta_mean_motion": 15.05595388,
        "meta_eccentricity": 0.00038789,
        "meta_inclination": 86.2019,
        "meta_ra_of_asc_node": 259.171,
        "meta_arg_of_pericenter": 296.3658,
        "meta_mean_anomaly": 92.7099,
        "meta_ephemeris_type": 0,
        "meta_classification_type": "U",
        "meta_norad_cat_id": 35622,
        "meta_element_set_no": 999,
        "meta_rev_at_epoch": 87495,
        "meta_bstar": 0.0033233516,
        "meta_mean_motion_dot": 0.00048189,
        "meta_mean_motion_ddot": 0,
        "tle_line1": "1 35622U 97051QU  25355.72969328  .00048189  00000+0  33234-2 0  9992",
        "tle_line2": "2 35622  86.2019 259.1710 0003878 296.3658  92.7099 15.05595388874954"
      },
      "geometry": {
        "type": "Point",
        "coordinates": [
          -102.76107356829623,
          -19.03630476827265
        ]
      }
    },
    {
      "type": "Feature",
      "properties": {
        "norad_id": 35628,
        "name": "IRIDIUM 33 DEB",
        "group": "iridium-33-debris",
        "lat": -45.479367177296005,
        "lon": -171.778422921667,
        "alt_km": 673.9964481312172,
        "timestamp": "2025-12-22T23:36:21.101037+00:00",
        "meta_object_name": "IRIDIUM 33 DEB",
        "meta_object_id": "1997-051RA",
        "meta_epoch": "2025-12-20T06:45:55.793664",
        "meta_mean_motion": 14.67680924,
        "meta_eccentricity": 0.00096368,
        "meta_inclination": 86.3562,
        "meta_ra_of_asc_node": 5.7112,
        "meta_arg_of_pericenter": 314.2717,
        "meta_mean_anomaly": 45.7705,
        "meta_ephemeris_type": 0,
        "meta_classification_type": "U",
        "meta_norad_cat_id": 35628,
        "meta_element_set_no": 999,
        "meta_rev_at_epoch": 86557,
        "meta_bstar": 0.00085133469,
        "meta_mean_motion_dot": 4.868e-05,
        "meta_mean_motion_ddot": 0,
        "tle_line1": "1 35628U 97051RA  25354.28189576  .00004868  00000+0  85133-3 0  9999",
        "tle_line2": "2 35628  86.3562   5.7112 0009636 314.2717  45.7705 14.67680924865577"
      },
      "geometry": {
        "type": "Point",
        "coordinates": [
          -171.778422921667,
          -45.479367177296005
        ]
      }
    },
    {
      "type": "Feature",
      "properties": {
        "norad_id": 35631,
        "name": "IRIDIUM 33 DEB",
        "group": "iridium-33-debris",
        "lat": 85.14026926595555,
        "lon": 148.1862207512892,
        "alt_km": 713.3208845379759,
        "timestamp": "2025-12-22T23:36:21.101059+00:00",
        "meta_object_name": "IRIDIUM 33 DEB",
        "meta_object_id": "1997-051RD",
        "meta_epoch": "2025-12-22T08:18:43.884000",
        "meta_mean_motion": 14.47336088,
        "meta_eccentricity": 0.00191901,
        "meta_inclination": 86.3657,
        "meta_ra_of_asc_node": 16.838,
        "meta_arg_of_pericenter": 89.5261,
        "meta_mean_anomaly": 285.5305,
        "meta_ephemeris_type": 0,
        "meta_classification_type": "U",
        "meta_norad_cat_id": 35631,
        "meta_element_set_no": 999,
        "meta_rev_at_epoch": 87336,
        "meta_bstar": 0.00033639063,
        "meta_mean_motion_dot": 1.254e-05,
        "meta_mean_motion_ddot": 0,
        "tle_line1": "1 35631U 97051RD  25356.34634125  .00001254  00000+0  33639-3 0  9997",
        "tle_line2": "2 35631  86.3657  16.8380 0019190  89.5261 285.5305 14.47336088873361"
      },
      "geometry": {
        "type": "Point",
        "coordinates": [
          148.1862207512892,
          85.14026926595555
        ]
      }
    },
    {
      "type": "Feature",
      "properties": {
        "norad_id": 35680,
        "name": "IRIDIUM 33 DEB",
        "group": "iridium-33-debris",
        "lat": 6.755064150711183,
        "lon": -163.47498429288507,
        "alt_km": 789.9923878571562,
        "timestamp": "2025-12-22T23:36:21.101076+00:00",
        "meta_object_name": "IRIDIUM 33 DEB",
        "meta_object_id": "1997-051RJ",
        "meta_epoch": "2025-12-21T07:58:47.283744",
        "meta_mean_motion": 14.2104558,
        "meta_eccentricity": 0.0150556,
        "meta_inclination": 86.1025,
        "meta_ra_of_asc_node": 17.7185,
        "meta_arg_of_pericenter": 250.9856,
        "meta_mean_anomaly": 122.3959,
        "meta_ephemeris_type": 0,
        "meta_classification_type": "U",
        "meta_norad_cat_id": 35680,
        "meta_element_set_no": 999,
        "meta_rev_at_epoch": 60823,
        "meta_bstar": 0.0026505,
        "meta_mean_motion_dot": 6.465e-05,
        "meta_mean_motion_ddot": 0,
        "tle_line1": "1 35680U 97051RJ  25355.33249171  .00006465  00000+0  26505-2 0  9994",
        "tle_line2": "2 35680  86.1025  17.7185 0150556 250.9856 122.3959 14.21045580608232"
      },
      "geometry": {
        "type": "Point",
        "coordinates": [
          -163.47498429288507,
          6.755064150711183
        ]
      }
    }
  ]
}